{"type": "FeatureCollection", "features": [ {"type": "Feature", "properties": {"norad_id": 29878, "name": "FENGYUN 1C DEB", "group": "fengyun-1c-debris", "lat": 45.463619217856504, "lon": 156.18598758414507, "alt_km": 535.9477043645893, "timestamp": "2025-12-17T04:57:44.638584+00:00", "meta": {"OBJECT_NAME": "FENGYUN 1C DEB", "OBJECT_ID": "1999-025FY", "EPOCH": "2025-12-16T17:37:55.593408", "MEAN_MOTION": 15.10749716, "ECCENTRICITY": 0.00257959, "INCLINATION": 96.9478, "RA_OF_ASC_NODE": 162.8764, "ARG_OF_PERICENTER": 157.9843, "MEAN_ANOMALY": 202.2503, "EPHEMERIS_TYPE": 0, "CLASSIFICATION_TYPE": "U", "NORAD_CAT_ID": 29878, "ELEMENT_SET_NO": 999, "REV_AT_EPOCH": 98708, "BSTAR": 0.0058187003, "MEAN_MOTION_DOT": 0.00098423, "MEAN_MOTION_DDOT": 0}, "tle": {"line1": "1 29878U 99025FY  25350.73467122  .00098423  00000+0  58187-2 0  9992", "line2": "2 29878  96.9478 162.8764 0025795 157.9843 202.2503 15.10749716987085"}}, "geometry": {"type": "Point", "coordinates": [156.18598758414507, 45.463619217856504]}}, {"type": "Feature", "properties": {"norad_id": 29880, "name": "FENGYUN 1C DEB", "group": "fengyun-1c-debris", "lat": -31.90062983564589, "lon": 84.10346616936329, "alt_km": 1010.692669830155, "timestamp": "2025-12-17T04:57:44.638593+00:00", "meta": {"OBJECT_NAME": "FENGYUN 1C DEB", "OBJECT_ID": "1999-025GA", "EPOCH": "2025-12-16T17:53:23.581248", "MEAN_MOTION": 13.93925649, "ECCENTRICITY": 0.02319618, "INCLINATION": 98.195, "RA_OF_ASC_NODE": 268.84, "ARG_OF_PERICENTER": 90.2922, "MEAN_ANOMALY": 325.7803, "EPHEMERIS_TYPE": 0, "CLASSIFICATION_TYPE": "U", "NORAD_CAT_ID": 29880, "ELEMENT_SET_NO": 999, "REV_AT_EPOCH": 95618, "BSTAR": 0.0008434149, "MEAN_MOTION_DOT": 1.357e-05, "MEAN_MOTION_DDOT": 0}, "tle": {"line1": "1 29880U 99025GA  25350.74541182  .00001357  00000+0  84341-3 0  9997", "line2": "2 29880  98.1950 268.8400 0231961  90.2922 325.7803 13.93925649956183"}}, "geometry": {"type": "Point", "coordinates": [84.10346616936329, -31.90062983564589]}}, {"type": "Feature", "properties": {"norad_id": 29881, "name": "FENGYUN 1C DEB", "group": "fengyun-1c-debris", "lat": 62.931683568728054, "lon": 160.38744672457025, "alt_km": 903.8518032686379, "timestamp": "2025-12-17T04:57:44.638602+00:00", "meta": {"OBJECT_NAME": "FENGYUN 1C DEB", "OBJECT_ID": "1999-025GB", "EPOCH": "2025-12-16T21:39:24.659136", "MEAN_MOTION": 13.59634056, "ECCENTRICITY": 0.02927848, "INCLINATION": 98.7227, "RA_OF_ASC_NODE": 322.6335, "ARG_OF_PERICENTER": 60.8863, "MEAN_ANOMALY": 2.9199, "EPHEMERIS_TYPE": 0, "CLASSIFICATION_TYPE": "U", "NORAD_CAT_ID": 29881, "ELEMENT_SET_NO": 999, "REV_AT_EPOCH": 93291, "BSTAR": 0.0021489483, "MEAN_MOTION_DOT": 2.079e-05, "MEAN_MOTION_DDOT": 0}, "tle": {"line1": "1 29881U 99025GB  25350.90236874  .00002079  00000+0  21489-2 0  9990", "line2": "2 29881  98.7227 322.6335 0292784  60.8863   2.9199 13.59634056932918"}}, "geometry": {"type": "Point", "coordinates": [160.38744672457025, 62.931683568728054]}}, {"type": "Feature", "properties": {"norad_id": 29884, "name": "FENGYUN 1C DEB", "group": "fengyun-1c-debris", "lat": -66.57878989893193, "lon": 48.185445156532374, "alt_km": 795.5935653064053, "timestamp": "2025-12-17T04:57:44.638611+00:00", "meta": {"OBJECT_NAME": "FENGYUN 1C DEB", "OBJECT_ID": "1999-025GE", "EPOCH": "2025-12-17T00:36:08.502624", "MEAN_MOTION": 14.40314692, "ECCENTRICITY": 0.00444807, "INCLINATION": 99.6032, "RA_OF_ASC_NODE": 24.9749, "ARG_OF_PERICENTER": 124.8217, "MEAN_ANOMALY": 305.1255, "EPHEMERIS_TYPE": 0, "CLASSIFICATION_TYPE": "U", "NORAD_CAT_ID": 29884, "ELEMENT_SET_NO": 999, "REV_AT_EPOCH": 98611, "BSTAR": 0.0004999642, "MEAN_MOTION_DOT": 1.55e-05, "MEAN_MOTION_DDOT": 0}, "tle": {"line1": "1 29884U 99025GE  25351.02509841  .00001550  00000+0  49996-3 0  9991", "line2": "2 29884  99.6032  24.9749 0044480 124.8217 305.1255 14.40314692986112"}}, "geometry": {"type": "Point", "coordinates": [48.185445156532374, -66.57878989893193]}}, {"type": "Feature", "properties": {"norad_id": 29885, "name": "FENGYUN 1C DEB", "group": "fengyun-1c-debris", "lat": 76.3426417999386, "lon": -111.26927977722387, "alt_km": 812.845069847288, "timestamp": "2025-12-17T04:57:44.638621+00:00", "meta": {"OBJECT_NAME": "FENGYUN 1C DEB", "OBJECT_ID": "1999-025GF", "EPOCH": "2025-12-16T18:41:26.700000", "MEAN_MOTION": 14.13583356, "ECCENTRICITY": 0.01186061, "INCLINATION": 98.3557, "RA_OF_ASC_NODE": 285.5489, "ARG_OF_PERICENTER": 152.6545, "MEAN_ANOMALY": 271.076, "EPHEMERIS_TYPE": 0, "CLASSIFICATION_TYPE": "U", "NORAD_CAT_ID": 29885, "ELEMENT_SET_NO": 999, "REV_AT_EPOCH": 97514, "BSTAR": 0.00011213934, "MEAN_MOTION_DOT": 1.87e-06, "MEAN_MOTION_DDOT": 0}, "tle": {"line1": "1 29885U 99025GF  25350.77878125  .00000187  00000+0  11214-3 0  9994", "line2": "2 29885  98.3557 285.5489 0118606 152.6545 271.0760 14.13583356975140"}}, "geometry": {"type": "Point", "coordinates": [-111.26927977722387, 76.3426417999386]}}, {"type": "Feature", "properties": {"norad_id": 29887, "name": "FENGYUN 1C DEB", "group": "fengyun-1c-debris", "lat": 3.305554607228177, "lon": -106.6328943654264, "alt_km": 983.3448284707501, "timestamp": "2025-12-17T04:57:44.638630+00:00", "meta": {"OBJECT_NAME": "FENGYUN 1C DEB", "OBJECT_ID": "1999-025GH", "EPOCH": "2025-12-16T18:38:37.940064", "MEAN_MOTION": 14.33727736, "ECCENTRICITY": 0.02867273, "INCLINATION": 98.7183, "RA_OF_ASC_NODE": 72.4255, "ARG_OF_PERICENTER": 347.2153, "MEAN_ANOMALY": 132.115, "EPHEMERIS_TYPE": 0, "CLASSIFICATION_TYPE": "U", "NORAD_CAT_ID": 29887, "ELEMENT_SET_NO": 999, "REV_AT_EPOCH": 98032, "BSTAR": 0.0004060023, "MEAN_MOTION_DOT": 1.73e-05, "MEAN_MOTION_DDOT": 0}, "tle": {"line1": "1 29887U 99025GH  25350.77682801  .00001730  00000+0  40600-3 0  9996", "line2": "2 29887  98.7183  72.4255 0286727 347.2153 132.1150 14.33727736980322"}}, "geometry": {"type": "Point", "coordinates": [-106.6328943654264, 3.305554607228177]}}, {"type": "Feature", "properties": {"norad_id": 29888, "name": "FENGYUN 1C DEB", "group": "fengyun-1c-debris", "lat": 34.23042075334586, "lon": 177.7687702550746, "alt_km": 639.3359893313127, "timestamp": "2025-12-17T04:57:44.638639+00:00", "meta": {"OBJECT_NAME": "FENGYUN 1C DEB", "OBJECT_ID": "1999-025GJ", "EPOCH": "2025-12-16T23:44:03.770592", "MEAN_MOTION": 14.19865153, "ECCENTRICITY": 0.0274888, "INCLINATION": 99.1915, "RA_OF_ASC_NODE": 183.8671, "ARG_OF_PERICENTER": 13.2954, "MEAN_ANOMALY": 347.5279, "EPHEMERIS_TYPE": 0, "CLASSIFICATION_TYPE": "U", "NORAD_CAT_ID": 29888, "ELEMENT_SET_NO": 999, "REV_AT_EPOCH": 97564, "BSTAR": 0.00029572482, "MEAN_MOTION_DOT": 8.62e-06, "MEAN_MOTION_DDOT": 0}, "tle": {"line1": "1 29888U 99025GJ  25350.98893253  .00000862  00000+0  29572-3 0  9995", "line2": "2 29888  99.1915 183.8671 0274888  13.2954 347.5279 14.19865153975647"}}, "geometry": {"type": "Point", "coordinates": [177.7687702550746, 34.23042075334586]}}, {"type": "Feature", "properties": {"norad_id": 29889, "name": "FENGYUN 1C DEB", "group": "fengyun-1c-debris", "lat": 13.790545537185142, "lon": 106.51589634915456, "alt_km": 739.3681426430185, "timestamp": "2025-12-17T04:57:44.638648+00:00", "meta": {"OBJECT_NAME": "FENGYUN 1C DEB", "OBJECT_ID": "1999-025GK", "EPOCH": "2025-12-16T20:58:43.148928", "MEAN_MOTION": 14.13516506, "ECCENTRICITY": 0.01543078, "INCLINATION": 99.4771, "RA_OF_ASC_NODE": 108.5133, "ARG_OF_PERICENTER": 27.6059, "MEAN_ANOMALY": 95.0245, "EPHEMERIS_TYPE": 0, "CLASSIFICATION_TYPE": "U", "NORAD_CAT_ID": 29889, "ELEMENT_SET_NO": 999, "REV_AT_EPOCH": 97377, "BSTAR": 0.0002382639, "MEAN_MOTION_DOT": 4.53e-06, "MEAN_MOTION_DDOT": 0}, "tle": {"line1": "1 29889U 99025GK  25350.87411052  .00000453  00000+0  23826-3 0  9999", "line2": "2 29889  99.4771 108.5133 0154307  27.6059  95.0245 14.13516506973775"}}, "geometry": {"type": "Point", "coordinates": [106.51589634915456, 13.790545537185142]}}, {"type": "Feature", "properties": {"norad_id": 29890, "name": "FENGYUN 1C DEB", "group": "fengyun-1c-debris", "lat": 30.358023364380745, "lon": 107.45367165982958, "alt_km": 804.3022479249621, "timestamp": "2025-12-17T04:57:44.638657+00:00", "meta": {"OBJECT_NAME": "FENGYUN 1C DEB", "OBJECT_ID": "1999-025GL", "EPOCH": "2025-12-16T22:04:06.737088", "MEAN_MOTION": 14.23053383, "ECCENTRICITY": 0.00146078, "INCLINATION": 99.4679, "RA_OF_ASC_NODE": 112.7541, "ARG_OF_PERICENTER": 62.0927, "MEAN_ANOMALY": 298.1726, "EPHEMERIS_TYPE": 0, "CLASSIFICATION_TYPE": "U", "NORAD_CAT_ID": 29890, "ELEMENT_SET_NO": 999, "REV_AT_EPOCH": 97510, "BSTAR": 0.00066881958, "MEAN_MOTION_DOT": 1.459e-05, "MEAN_MOTION_DDOT": 0}, "tle": {"line1": "1 29890U 99025GL  25350.91952242  .00001459  00000+0  66882-3 0  9993", "line2": "2 29890  99.4679 112.7541 0014607  62.0927 298.1726 14.23053383975108"}}, "geometry": {"type": "Point", "coordinates": [107.45367165982958, 30.358023364380745]}}, {"type": "Feature", "properties": {"norad_id": 29891, "name": "FENGYUN 1C DEB", "group": "fengyun-1c-debris", "lat": -52.97351715345943, "lon": 4.876500918481995, "alt_km": 877.2473782644865, "timestamp": "2025-12-17T04:57:44.638667+00:00", "meta": {"OBJECT_NAME": "FENGYUN 1C DEB", "OBJECT_ID": "1999-025GM", "EPOCH": "2025-12-17T00:22:09.345216", "MEAN_MOTION": 14.00003312, "ECCENTRICITY": 0.00611348, "INCLINATION": 98.7264, "RA_OF_ASC_NODE": 352.945, "ARG_OF_PERICENTER": 248.2947, "MEAN_ANOMALY": 173.2825, "EPHEMERIS_TYPE": 0, "CLASSIFICATION_TYPE": "U", "NORAD_CAT_ID": 29891, "ELEMENT_SET_NO": 999, "REV_AT_EPOCH": 96548, "BSTAR": 0.00047885536, "MEAN_MOTION_DOT": 6.74e-06, "MEAN_MOTION_DDOT": 0}, "tle": {"line1": "1 29891U 99025GM  25351.01538594  .00000674  00000+0  47886-3 0  9997", "line2": "2 29891  98.7264 352.9450 0061134 248.2947 173.2825 14.00003312965480"}}, "geometry": {"type": "Point", "coordinates": [4.876500918481995, -52.97351715345943]}}]}